COSMOS 2413 (712)       
1 28509U 04053B   16142.35364032  .00000075  00000-0  00000+0 0  9997
2 28509  63.1274 191.0570 0005316 177.1615 250.7988  2.13101985 88730
COSMOS 2419 (714)       
1 28915U 05050A   16142.43468169 -.00000026  00000-0  00000+0 0  9998
2 28915  65.3115  79.0665 0017206 348.1786 145.2558  2.13115645 80987
COSMOS 2425 (716)       
1 29670U 06062A   16143.36646579 -.00000029  00000-0  10000-3 0  9995
2 29670  65.6447 318.0214 0021599 351.8286 194.7877  2.13104899 73208
COSMOS 2426 (717)       
1 29671U 06062B   16143.06919233 -.00000030  00000-0  10000-3 0  9995
2 29671  65.6626 318.1128 0017118 157.4932  22.1663  2.13102913 73205
COSMOS 2424 (715)       
1 29672U 06062C   16143.30520917 -.00000029  00000-0  10000-3 0  9998
2 29672  65.6466 318.0339 0016532 155.9071  21.1797  2.13102181 73201
COSMOS 2433 (720)       
1 32275U 07052A   16141.74156927 -.00000031  00000-0  10000-3 0  9996
2 32275  65.3264  78.8605 0004094 291.0894 280.9566  2.13104759 66685
COSMOS 2432 (719)       
1 32276U 07052B   16143.04824777 -.00000021  00000-0  10000-3 0  9996
2 32276  65.3390  78.8816 0013834 335.5052 112.8527  2.13104232 66712
COSMOS 2434 (721)       
1 32393U 07065A   16143.45728970 -.00000030  00000-0  00000+0 0  9998
2 32393  65.2641 317.3537 0005985  96.6510 243.8609  2.13102793 65426
COSMOS 2436 (723)       
1 32395U 07065C   16143.44853600 -.00000030  00000-0  10000-3 0  9993
2 32395  65.2759 317.3961 0017450   1.1397  64.6727  2.13102842 65361
COSMOS 2443 (725)       
1 33379U 08046B   16142.69361809 -.00000025  00000-0  10000-3 0  9991
2 33379  65.2554  78.2477 0016065 189.6553 298.1917  2.13101381 59577
COSMOS 2456 (730)       
1 36111U 09070A   16142.74166627  .00000070  00000-0  00000+0 0  9997
2 36111  64.1814 196.9705 0005425 301.9708  18.9638  2.13102891 50073
COSMOS 2457 (733)       
1 36112U 09070B   16143.21323855  .00000070  00000-0  00000+0 0  9999
2 36112  64.1632 196.8823 0006788 179.9501 273.1393  2.13101566 50092
COSMOS 2458 (734)       
1 36113U 09070C   16143.42729642  .00000070  00000-0  10000-3 0  9992
2 36113  64.1688 196.8803 0001701 303.2976   1.4999  2.13102114 50094
COSMOS 2459 (731)       
1 36400U 10007A   16143.13348247 -.00000022  00000-0  10000-3 0  9997
2 36400  65.2350  77.9675 0030071 351.2266  74.2268  2.13102341 48449
COSMOS 2461 (735)       
1 36401U 10007B   16142.46181044 -.00000027  00000-0  10000-3 0  9998
2 36401  65.2278  77.9720 0005898  50.4003 130.3258  2.13102387 48427
COSMOS 2460 (732)       
1 36402U 10007C   16142.57047176 -.00000027  00000-0  10000-3 0  9998
2 36402  65.2176  77.9457 0002112 325.5624 340.4490  2.13101867 48427
COSMOS 2466 (738)       
1 37137U 10041A   16142.72963409 -.00000033  00000-0  10000-3 0  9992
2 37137  64.8459 317.4912 0019202 152.6126 216.2381  2.13110909 44516
COSMOS 2465 (737)       
1 37138U 10041B   16141.96948818 -.00000035  00000-0  00000+0 0  9992
2 37138  64.8641 317.5917 0034750 166.4939 158.2723  2.13098456 44489
COSMOS 2464 (736)       
1 37139U 10041C   16142.49265186 -.00000034  00000-0  00000+0 0  9991
2 37139  64.8701 317.5685 0023800  17.1380 171.0280  2.13102572 44504
COSMOS 2471 (701K)      
1 37372U 11009A   16143.05399891 -.00000023  00000-0  00000+0 0  9997
2 37372  65.2156  77.8788 0007931 246.4703 202.9959  2.13102774 40715
COSMOS 2474 (742)       
1 37829U 11055A   16143.11335148  .00000070  00000-0  00000+0 0  9998
2 37829  64.5058 197.3599 0009690 253.0575 214.5549  2.13101948 36089
COSMOS 2476 (744)       
1 37867U 11064A   16143.44155753  .00000069  00000-0  00000+0 0  9996
2 37867  64.4856 197.4304 0018536 247.7163 157.5143  2.13102078 35443
COSMOS 2477 (745)       
1 37868U 11064B   16142.34868212  .00000069  00000-0  00000+0 0  9996
2 37868  64.4939 197.5077 0016476 249.0717 217.0598  2.13101884 35377
COSMOS 2475 (743)       
1 37869U 11064C   16142.41626924  .00000069  00000-0  00000+0 0  9997
2 37869  64.5014 197.4931 0021780 274.2589 199.8319  2.13101980 35388
COSMOS 2478 (746)       
1 37938U 11071A   16143.18189131 -.00000021  00000-0  00000+0 0  9990
2 37938  65.2435  78.0959 0014098 245.7562  56.0506  2.13088444 35002
COSMOS 2485 (747)       
1 39155U 13019A   16142.46646199  .00000070  00000-0  00000+0 0  9992
2 39155  64.6552 197.4078 0018697 242.5939 179.7146  2.13102048 23892
COSMOS 2492 (754)       
1 39620U 14012A   16142.00519863 -.00000031  00000-0  10000-3 0  9993
2 39620  65.1065  77.9568 0017345 332.7134 128.8714  2.13103561 16831
COSMOS 2500 (755)       
1 40001U 14032A   16142.69150185 -.00000026  00000-0  00000+0 0  9992
2 40001  65.0469  77.9597 0005335 226.7655 265.1158  2.13102969 15063
COSMOS 2501 (702K)      
1 40315U 14075A   16142.70729596 -.00000034  00000-0  00000+0 0  9996
2 40315  64.6355 319.0259 0015934 233.3673  71.9682  2.13101523 11465
COSMOS 2514 (751)       
1 41330U 16008A   16142.42990516 -.00000028  00000-0  00000+0 0  9996
2 41330  64.8472  78.2114 0008800 229.5797 240.5800  2.13103547  2225
